TRANSPORTER-11 OBJECT A 
1 60468U 24149A   26068.74646182  .00010774  00000+0  36054-3 0  9993
2 60468  97.3780 149.0949 0003110 191.0010 169.1164 15.31141332 86830
STARLINK-34227          
1 64178U 25113J   26068.48330428  .00027491  00000+0  93659-3 0  9999
2 64178  53.1584  92.0831 0001303  73.7662 286.3482 15.30210171 45031
